[
    {
        "id": 101,
        "name": "India",
        "iso3": "IND",
        "iso2": "IN",
        "phone_code": "91",
        "capital": "New Delhi",
        "currency": "INR",
        "native": "भारत",
        "region": "Asia",
        "subregion": "Southern Asia",
        "translations": "{\"cn\":\"印度\"}"
    },
    {
        "id": 233,
        "name": "United States",
        "iso3": "USA",
        "iso2": "US",
        "phone_code": "1",
        "capital": "Washington, D.C.",
        "currency": "USD",
        "native": "United States",
        "region": "Americas",
        "subregion": "Northern America",
        "translations": "{\"cn\":\"美国\"}"
    },
    {
        "id": 45,
        "name": "China",
        "iso3": "CHN",
        "iso2": "CN",
        "phone_code": "86",
        "capital": "Beijing",
        "currency": "CNY",
        "native": "中国",
        "region": "Asia",
        "subregion": "Eastern Asia",
        "translations": "{\"cn\":\"中国\"}"
    },
    {
        "id": 110,
        "name": "Japan",
        "iso3": "JPN",
        "iso2": "JP",
        "phone_code": "81",
        "capital": "Tokyo",
        "currency": "JPY",
        "native": "日本",
        "region": "Asia",
        "subregion": "Eastern Asia",
        "translations": "{\"cn\":\"日本\"}"
    },
    {
        "id": 82,
        "name": "Germany",
        "iso3": "DEU",
        "iso2": "DE",
        "phone_code": "49",
        "capital": "Berlin",
        "currency": "EUR",
        "native": "Deutschland",
        "region": "Europe",
        "subregion": "Western Europe",
        "translations": "{\"cn\":\"德国\"}"
    },
    {
        "id": 232,
        "name": "United Kingdom",
        "iso3": "GBR",
        "iso2": "GB",
        "phone_code": "44",
        "capital": "London",
        "currency": "GBP",
        "native": "United Kingdom",
        "region": "Europe",
        "subregion": "Northern Europe",
        "translations": "{\"cn\":\"英国\"}"
    },
    {
        "id": 75,
        "name": "France",
        "iso3": "FRA",
        "iso2": "FR",
        "phone_code": "33",
        "capital": "Paris",
        "currency": "EUR",
        "native": "France",
        "region": "Europe",
        "subregion": "Western Europe",
        "translations": "{\"cn\":\"法国\"}"
    },
    {
        "id": 39,
        "name": "Canada",
        "iso3": "CAN",
        "iso2": "CA",
        "phone_code": "1",
        "capital": "Ottawa",
        "currency": "CAD",
        "native": "Canada",
        "region": "Americas",
        "subregion": "Northern America",
        "translations": "{\"cn\":\"加拿大\"}"
    },
    {
        "id": 182,
        "name": "Russia",
        "iso3": "RUS",
        "iso2": "RU",
        "phone_code": "7",
        "capital": "Moscow",
        "currency": "RUB",
        "native": "Россия",
        "region": "Europe",
        "subregion": "Eastern Europe",
        "translations": "{\"cn\":\"俄罗斯\"}"
    }
]
